[
    {
      "name": "Liverpool Family Information & SEND Directory",
      "url": "https://fsd.liverpool.gov.uk/...",
      "postcode": "L3 1AH"
    },
    {
      "name": "Sefton Special Educational Needs and Disabilities Directory",
      "url": "https://www.seftondirectory.com/...",
      "postcode": "L20 7AE"
    },
    {
      "name": "Knowsley Local Offer (SEND)",
      "url": "https://www.knowsleyinfo.co.uk/knowsley-local-offer-send",
      "postcode": "L36 6GA"
    },
    {
      "name": "St Helens SEND Information Hub",
      "url": "https://new.sthelens.gov.uk/SEND",
      "postcode": "WA10 1HP"
    },
    {
      "name": "Wirral SEND Local Offer (SENDLO)",
      "url": "https://www.sendlowirral.co.uk/",
      "postcode": ""
    },
    {
      "name": "Active Community Enterprise (ACE)",
      "url": "https://www.thisisace.co.uk/",
      "postcode": "L25 2NP"
    },
    {
      "name": "The Sensory Hive",
      "url": "https://www.thesensoryhive.co.uk/",
      "postcode": "L35 2YW"
    },
    {
      "name": "Sensory Swim and Health Merseyside CIC",
      "url": "https://sensoryswimmerseyside.co.uk/",
      "postcode": "L22 5NG"
    },
    {
      "name": "Daisy Inclusive UK",
      "url": "https://daisyuk.com/",
      "postcode": "L6 5LB"
    },
    {
      "name": "Moving Senses – Positive Futures",
      "url": "https://movingsenses.co.uk/",
      "postcode": "L36 7UN"
    },
    {
      "name": "ADDvanced Solutions Community Network",
      "url": "https://www.addvancedsolutions.co.uk/",
      "postcode": "L24 9HJ"
    },
    {
      "name": "Autism in Motion (Liverpool)",
      "url": "https://www.aimautism.com/",
      "postcode": "L9 6BW"
    },
    {
      "name": "Wirral SEND Partnership (WIRED)",
      "url": "https://wired.me.uk/special-educational-needs-and-disabilities/wirral-send-partnership/",
      "postcode": "CH41 7AL"
    },
    {
      "name": "Young Person’s Advisory Service (YPAS)",
      "url": "https://ypas.org.uk/",
      "postcode": "L3 5LX"
    },
    {
      "name": "EPIC Social Care CIC",
      "url": "https://www.epicsocialcare.co.uk/",
      "postcode": "L24 3TA"
    },
    {
      "name": "Steps to Work (Strawberry Field)",
      "url": "https://www.strawberryfield.salvationarmy.org.uk/steps-to-work",
      "postcode": "L25 6EJ"
    },
    {
      "name": "Young Adult Respite Service (YARS)",
      "url": "https://www.yars.org.uk/",
      "postcode": "L36 0UX"
    },
    {
      "name": "The Brain Charity",
      "url": "https://www.thebraincharity.org.uk/",
      "postcode": "L3 8LR"
    },
    {
      "name": "SEND Information Advice and Support Service (SENDIASS)",
      "url": "https://www.barnardos.org.uk/...SENDIASS",
      "postcode": ""
    },
    {
      "name": "Independent Provider of Special Education Advice (IPSEA)",
      "url": "https://www.ipsea.org.uk/",
      "postcode": "CM22 6PU"
    },
    {
      "name": "Family Fund",
      "url": "https://www.familyfund.org.uk/",
      "postcode": "YO32 9WN"
    },
    {
      "name": "Headway – the Brain Injury Association",
      "url": "https://www.headway.org.uk/",
      "postcode": "NG6 8SF"
    },
    {
      "name": "National Autistic Society (NAS)",
      "url": "https://www.autism.org.uk/",
      "postcode": "EC1V 1NG"
    },
    {
      "name": "CerebralPalsy.org.uk",
      "url": "http://www.cerebralpalsy.org.uk/",
      "postcode": ""
    },
    {
      "name": "Liverpool Family Hubs",
      "url": "https://fsd.liverpool.gov.uk/.../family-hubs",
      "postcode": ""
    },
    {
      "name": "Wellbeing Liverpool",
      "url": "https://wellbeingliverpool.co.uk/",
      "postcode": "L2 2AH"
    }
  ]
  